[{"OBJECT_NAME":"CONTINUUM-1","OBJECT_ID":"2023-001AN","EPOCH":"2026-03-09T23:17:35.458656","MEAN_MOTION":15.27981258,"ECCENTRICITY":0.00109493,"INCLINATION":97.3456,"RA_OF_ASC_NODE":133.3964,"ARG_OF_PERICENTER":60.1976,"MEAN_ANOMALY":300.0351,"EPHEMERIS_TYPE":0,"CLASSIFICATION_TYPE":"U","NORAD_CAT_ID":55045,"ELEMENT_SET_NO":999,"REV_AT_EPOCH":17709,"BSTAR":0.00052859897,"MEAN_MOTION_DOT":0.00014395,"MEAN_MOTION_DDOT":0},{"OBJECT_NAME":"STARLINK-36517","OBJECT_ID":"2026-008K","EPOCH":"2026-03-09T10:56:23.735328","MEAN_MOTION":15.27599223,"ECCENTRICITY":0.0002153,"INCLINATION":42.9956,"RA_OF_ASC_NODE":206.7869,"ARG_OF_PERICENTER":179.317,"MEAN_ANOMALY":180.7685,"EPHEMERIS_TYPE":0,"CLASSIFICATION_TYPE":"U","NORAD_CAT_ID":67454,"ELEMENT_SET_NO":999,"REV_AT_EPOCH":953,"BSTAR":0.00089482044,"MEAN_MOTION_DOT":0.00024458,"MEAN_MOTION_DDOT":0}]
